NORAD_CAT_ID,OBJECT_NAME,OBJECT_TYPE,EPOCH,MEAN_MOTION,ECCENTRICITY,INCLINATION,RA_OF_ASC_NODE,ARG_OF_PERICENTER,MEAN_ANOMALY,BSTAR,MEAN_MOTION_DOT,MEAN_MOTION_DDOT,TLE_LINE0,TLE_LINE1,TLE_LINE2,SEMIMAJOR_AXIS,PERIOD,APOGEE,PERIGEE,DECAYED
55759.0,STARLINK-5081,PAYLOAD,2023-10-07 11:30:38,14.98323272,0.0002215,69.9992,294.0388,263.372,96.7187,5.7918e-05,5.98e-06,0.0,0 STARLINK-5081,1 55759U 23028U   23280.47960966  .00000598  00000-0  57918-4 0  9994,2 55759  69.9992 294.0388 0002215 263.3720  96.7187 14.98323272 34088,6950.214,96.107,573.618,570.539,0.0
55759.0,STARLINK-5081,PAYLOAD,2023-10-07 17:55:10,14.98346531,0.0002606,69.9995,293.365,273.1053,86.9808,-0.0003492,-4.259e-05,0.0,0 STARLINK-5081,1 55759U 23028U   23280.74664379 -.00004259  00000-0 -34920-3 0  9990,2 55759  69.9995 293.3650 0002606 273.1053  86.9808 14.98346531 34126,6950.142,96.106,573.818,570.196,0.0
55759.0,STARLINK-5081,PAYLOAD,2023-10-08 03:31:58,14.98331886,0.0002869,69.9985,292.3548,271.0672,89.0158,-5.3338e-05,-7.29e-06,0.0,0 STARLINK-5081,1 55759U 23028U   23281.14720627 -.00000729  00000-0 -53338-4 0  9997,2 55759  69.9985 292.3548 0002869 271.0672  89.0158 14.98331886 34180,6950.187,96.107,574.046,570.058,0.0
55759.0,STARLINK-5081,PAYLOAD,2023-10-08 11:32:38,14.98331563,0.0002674,69.9988,291.5135,266.2161,93.8692,-2.5502e-05,-3.97e-06,0.0,0 STARLINK-5081,1 55759U 23028U   23281.48100543 -.00000397  00000-0 -25502-4 0  9996,2 55759  69.9988 291.5135 0002674 266.2161  93.8692 14.98331563 34233,6950.188,96.107,573.912,570.195,0.0
55759.0,STARLINK-5081,PAYLOAD,2023-10-08 17:57:10,14.98361897,0.0002751,69.9995,290.8393,277.473,82.6116,-0.00061955,-7.483e-05,0.0,0 STARLINK-5081,1 55759U 23028U   23281.74803929 -.00007483  00000-0 -61955-3 0  9997,2 55759  69.9995 290.8393 0002751 277.4730  82.6116 14.98361897 34275,6950.094,96.105,573.871,570.047,0.0
55759.0,STARLINK-5081,PAYLOAD,2023-10-09 03:33:59,14.98324092,0.0002573,69.9984,289.8303,254.9364,105.151,-1.2861e-05,-2.46e-06,0.0,0 STARLINK-5081,1 55759U 23028U   23282.14860933 -.00000246  00000-0 -12861-4 0  9993,2 55759  69.9984 289.8303 0002573 254.9364 105.1510 14.98324092 34339,6950.211,96.107,573.864,570.288,0.0
55759.0,STARLINK-5081,PAYLOAD,2023-10-09 08:22:25,14.98308382,0.0002722,69.9987,289.3248,269.899,90.1857,-0.00017455,-2.174e-05,0.0,0 STARLINK-5081,1 55759U 23028U   23282.34890588 -.00002174  00000-0 -17455-3 0  9999,2 55759  69.9987 289.3248 0002722 269.8990  90.1857 14.98308382 34365,6950.26,96.108,574.017,570.233,0.0
55759.0,STARLINK-5081,PAYLOAD,2023-10-09 09:58:33,14.98309259,0.0002832,69.9985,289.1566,268.9611,91.1224,-0.00017709,-2.204e-05,0.0,0 STARLINK-5081,1 55759U 23028U   23282.41566588 -.00002204  00000-0 -17709-3 0  9993,2 55759  69.9985 289.1566 0002832 268.9611  91.1224 14.98309259 34370,6950.257,96.108,574.09,570.154,0.0
55759.0,STARLINK-5081,PAYLOAD,2023-10-09 17:59:13,14.98311902,0.0002906,69.9982,288.3143,267.7218,92.3609,-0.00014602,-1.834e-05,0.0,0 STARLINK-5081,1 55759U 23028U   23282.74946688 -.00001834  00000-0 -14602-3 0  9999,2 55759  69.9982 288.3143 0002906 267.7218  92.3609 14.98311902 34425,6950.249,96.108,574.134,570.094,0.0
55759.0,STARLINK-5081,PAYLOAD,2023-10-10 01:59:54,14.98315681,0.0002935,69.9983,287.4733,270.3457,89.7366,-8.9473e-05,-1.16e-05,0.0,0 STARLINK-5081,1 55759U 23028U   23283.08326633 -.00001160  00000-0 -89473-4 0  9990,2 55759  69.9983 287.4733 0002935 270.3457  89.7366 14.98315681 34471,6950.237,96.108,574.142,570.062,0.0
55759.0,STARLINK-5081,PAYLOAD,2023-10-10 10:00:34,14.98320902,0.0002906,69.9982,286.6315,270.6123,89.4703,-3.7435e-05,-5.4e-06,0.0,0 STARLINK-5081,1 55759U 23028U   23283.41706437 -.00000540  00000-0 -37435-4 0  9993,2 55759  69.9982 286.6315 0002906 270.6123  89.4703 14.98320902 34528,6950.221,96.108,574.106,570.066,0.0
55759.0,STARLINK-5081,PAYLOAD,2023-10-10 18:01:14,14.98325028,0.0002956,69.9982,285.79,269.9036,90.1784,4.8075e-06,-3.6e-07,0.0,0 STARLINK-5081,1 55759U 23028U   23283.75086249 -.00000036  00000-0  48075-5 0  9994,2 55759  69.9982 285.7900 0002956 269.9036  90.1784 14.98325028 34574,6950.208,96.107,574.128,570.019,0.0
55759.0,STARLINK-5081,PAYLOAD,2023-10-11 10:02:34,14.98341474,0.0003033,69.998,284.1062,271.4856,88.5956,-4.5592e-06,-1.47e-06,0.0,0 STARLINK-5081,1 55759U 23028U   23284.41845316 -.00000147  00000-0 -45592-5 0  9991,2 55759  69.9980 284.1062 0003033 271.4856  88.5956 14.98341474 34675,6950.157,96.106,574.13,569.914,0.0
55759.0,STARLINK-5081,PAYLOAD,2023-10-11 18:03:15,14.98311146,0.0002869,69.9981,283.2646,273.393,86.6901,0.00063728,7.515e-05,0.0,0 STARLINK-5081,1 55759U 23028U   23284.75225948  .00007515  00000-0  63728-3 0  9994,2 55759  69.9981 283.2646 0002869 273.3930  86.6901 14.98311146 34722,6950.251,96.108,574.11,570.122,0.0
55759.0,STARLINK-5081,PAYLOAD,2023-10-12 05:16:10,14.98340776,0.0002868,69.9987,282.0863,271.7581,88.3249,0.00025591,2.963e-05,0.0,0 STARLINK-5081,1 55759U 23028U   23285.21956698  .00002963  00000-0  25591-3 0  9997,2 55759  69.9987 282.0863 0002868 271.7581  88.3249 14.98340776 34791,6950.16,96.106,574.018,570.031,0.0
55759.0,STARLINK-5081,PAYLOAD,2023-10-12 10:04:34,14.98344624,0.0002863,69.9989,281.5811,272.1933,87.8898,0.00028005,3.251e-05,0.0,0 STARLINK-5081,1 55759U 23028U   23285.41984214  .00003251  00000-0  28005-3 0  9998,2 55759  69.9989 281.5811 0002863 272.1933  87.8898 14.98344624 34825,6950.148,96.106,574.002,570.023,0.0
55759.0,STARLINK-5081,PAYLOAD,2023-10-13 03:42:03,14.98337228,0.0003069,69.9983,279.7294,270.3785,89.7023,-2.0271e-05,-3.35e-06,0.0,0 STARLINK-5081,1 55759U 23028U   23286.15420982 -.00000335  00000-0 -20271-4 0  9997,2 55759  69.9983 279.7294 0003069 270.3785  89.7023 14.98337228 34932,6950.171,96.107,574.169,569.903,0.0
55759.0,STARLINK-5081,PAYLOAD,2023-10-13 10:06:35,14.98339168,0.0002859,69.9991,279.057,264.3282,95.7551,1.4864e-05,8.4e-07,0.0,0 STARLINK-5081,1 55759U 23028U   23286.42124565  .00000084  00000-0  14864-4 0  9995,2 55759  69.9991 279.0570 0002859 264.3282  95.7551 14.98339168 34974,6950.165,96.106,574.017,570.042,0.0
55759.0,STARLINK-5081,PAYLOAD,2023-10-13 16:31:07,14.98377806,0.0002772,70.0003,278.3836,273.2719,86.8123,-0.00076532,-9.224e-05,0.0,0 STARLINK-5081,1 55759U 23028U   23286.68827673 -.00009224  00000-0 -76532-3 0  9999,2 55759  70.0003 278.3836 0002772 273.2719  86.8123 14.98377806 35019,6950.045,96.104,573.837,569.984,0.0
55759.0,STARLINK-5081,PAYLOAD,2023-10-14 02:07:56,14.98342248,0.000283,69.9993,277.3734,269.2746,90.8089,-0.00012541,-1.589e-05,0.0,0 STARLINK-5081,1 55759U 23028U   23287.08884318 -.00001589  00000-0 -12541-3 0  9999,2 55759  69.9993 277.3734 0002830 269.2746  90.8089 14.98342248 35074,6950.155,96.106,573.987,570.053,0.0
55759.0,STARLINK-5081,PAYLOAD,2023-10-14 10:08:35,14.98343413,0.0002612,69.9995,276.5317,263.802,96.2842,-4.6547e-05,-6.48e-06,0.0,0 STARLINK-5081,1 55759U 23028U   23287.42263748 -.00000648  00000-0 -46547-4 0  9994,2 55759  69.9995 276.5317 0002612 263.8020  96.2842 14.98343413 35125,6950.151,96.106,573.832,570.201,0.0
55759.0,STARLINK-5081,PAYLOAD,2023-10-15 02:09:58,14.98318584,0.0002887,69.9995,274.8487,268.0814,92.0014,-0.00012842,-1.624e-05,0.0,0 STARLINK-5081,1 55759U 23028U   23288.09025468 -.00001624  00000-0 -12842-3 0  9998,2 55759  69.9995 274.8487 0002887 268.0814  92.0014 14.98318584 35223,6950.228,96.108,574.1,570.087,0.0
55759.0,STARLINK-5081,PAYLOAD,2023-10-15 08:34:30,14.98321224,0.0003005,69.999,274.1754,265.5242,94.5574,-0.00011007,-1.406e-05,0.0,0 STARLINK-5081,1 55759U 23028U   23288.35729382 -.00001406  00000-0 -11007-3 0  9993,2 55759  69.9990 274.1754 0003005 265.5242  94.5574 14.98321224 35265,6950.22,96.108,574.174,569.996,0.0
55759.0,STARLINK-5081,PAYLOAD,2023-10-15 16:35:10,14.9832812,0.0003084,69.9989,273.3334,265.9683,94.1123,-7.7147e-05,-1.013e-05,0.0,0 STARLINK-5081,1 55759U 23028U   23288.69108959 -.00001013  00000-0 -77147-4 0  9993,2 55759  69.9989 273.3334 0003084 265.9683  94.1123 14.98328120 35312,6950.199,96.107,574.207,569.92,0.0
55759.0,STARLINK-5081,PAYLOAD,2023-10-16 08:36:30,14.98334626,0.0003024,69.9989,271.65,267.6565,92.4248,4.2417e-05,4.13e-06,0.0,0 STARLINK-5081,1 55759U 23028U   23289.35868337  .00000413  00000-0  42417-4 0  9993,2 55759  69.9989 271.6500 0003024 267.6565  92.4248 14.98334626 35418,6950.179,96.107,574.145,569.942,0.0
55759.0,STARLINK-5081,PAYLOAD,2023-10-16 23:01:43,14.98325176,0.000314,69.9989,270.1347,268.2111,91.8688,0.00016893,1.923e-05,0.0,0 STARLINK-5081,1 55759U 23028U   23289.95952561  .00001923  00000-0  16893-3 0  9997,2 55759  69.9989 270.1347 0003140 268.2111  91.8688 14.98325176 35505,6950.208,96.107,574.255,569.89,0.0
55759.0,STARLINK-5081,PAYLOAD,2023-10-17 08:38:31,14.98327635,0.0002931,69.9999,269.1235,267.8998,92.1826,0.00021963,2.528e-05,0.0,0 STARLINK-5081,1 55759U 23028U   23290.36008337  .00002528  00000-0  21963-3 0  9993,2 55759  69.9999 269.1235 0002931 267.8998  92.1826 14.98327635 35561,6950.2,96.107,574.102,570.028,0.0
55759.0,STARLINK-5081,PAYLOAD,2023-10-18 02:16:00,14.98331991,0.0002838,70.0,267.2727,267.3798,92.7036,2.7885e-05,2.4e-06,0.0,0 STARLINK-5081,1 55759U 23028U   23291.09444558  .00000240  00000-0  27885-4 0  9992,2 55759  70.0000 267.2727 0002838 267.3798  92.7036 14.98331991 35672,6950.187,96.107,574.024,570.079,0.0
55759.0,STARLINK-5081,PAYLOAD,2023-10-18 05:28:15,14.98338341,0.0002861,69.9995,266.9352,270.4625,89.6207,8.5937e-05,9.33e-06,0.0,0 STARLINK-5081,1 55759U 23028U   23291.22796011  .00000933  00000-0  85937-4 0  9992,2 55759  69.9995 266.9352 0002861 270.4625  89.6207 14.98338341 35695,6950.167,96.106,574.021,570.044,0.0
55759.0,STARLINK-5081,PAYLOAD,2023-10-18 21:29:38,14.98314193,0.0003232,69.9999,265.2525,273.5388,86.5402,-0.00022496,-2.775e-05,0.0,0 STARLINK-5081,1 55759U 23028U   23291.89558779 -.00002775  00000-0 -22496-3 0  9990,2 55759  69.9999 265.2525 0003232 273.5388  86.5402 14.98314193 35799,6950.242,96.108,574.353,569.86,0.0
